{
  "norad_id": 65450,
  "name": "STARLINK-34970",
  "history": [
    {
      "epoch": "2026-03-28T19:56:59.123040Z",
      "apogee_km": 550.7200885937364,
      "perigee_km": 548.2585644074034,
      "latitude_deg": 5.3561668879070036e-05,
      "longitude_deg": 177.69930360903308,
      "height_km": 552.2155611331282,
      "semi_major_axis_km": 6927.626326500569,
      "eccentricity": 0.00017766,
      "inclination_deg": 97.6016,
      "raan_deg": 303.1917,
      "arg_perigee_deg": 74.1497,
      "mean_anomaly_deg": 285.9926,
      "mean_motion_rev_day": 15.05657116
    },
    {
      "epoch": "2026-03-29T03:55:29.067168Z",
      "apogee_km": 550.5987255531882,
      "perigee_km": 548.374958299929,
      "latitude_deg": -2.924241933133873e-05,
      "longitude_deg": 58.07462644191174,
      "height_km": 552.220269820439,
      "semi_major_axis_km": 6927.623841926558,
      "eccentricity": 0.0001605,
      "inclination_deg": 97.6015,
      "raan_deg": 303.5193,
      "arg_perigee_deg": 72.7739,
      "mean_anomaly_deg": 287.3663,
      "mean_motion_rev_day": 15.05657926
    },
    {
      "epoch": "2026-03-30T02:15:16.949952Z",
      "apogee_km": 550.3853424287327,
      "perigee_km": 548.6035556200432,
      "latitude_deg": 5.728450712243857e-05,
      "longitude_deg": 83.12494471500933,
      "height_km": 552.1978990766303,
      "semi_major_axis_km": 6927.631449024388,
      "eccentricity": 0.0001286,
      "inclination_deg": 97.6013,
      "raan_deg": 304.4362,
      "arg_perigee_deg": 66.1777,
      "mean_anomaly_deg": 293.9585,
      "mean_motion_rev_day": 15.05655446
    },
    {
      "epoch": "2026-03-30T02:15:16.950816Z",
      "apogee_km": 550.3852731524184,
      "perigee_km": 548.6036248963583,
      "latitude_deg": 5.832957081331973e-05,
      "longitude_deg": 83.12494096645328,
      "height_km": 552.19792706349,
      "semi_major_axis_km": 6927.631449024388,
      "eccentricity": 0.00012859,
      "inclination_deg": 97.6013,
      "raan_deg": 304.4362,
      "arg_perigee_deg": 66.1777,
      "mean_anomaly_deg": 293.9585,
      "mean_motion_rev_day": 15.05655446
    },
    {
      "epoch": "2026-03-30T13:25:11.098272Z",
      "apogee_km": 550.6602013918491,
      "perigee_km": 548.3476163036585,
      "latitude_deg": 3.773413120185466e-05,
      "longitude_deg": -84.35090210132854,
      "height_km": 552.3229967355463,
      "semi_major_axis_km": 6927.640908847754,
      "eccentricity": 0.00016691,
      "inclination_deg": 97.6011,
      "raan_deg": 304.8945,
      "arg_perigee_deg": 77.8452,
      "mean_anomaly_deg": 282.2962,
      "mean_motion_rev_day": 15.05652362
    },
    {
      "epoch": "2026-03-31T13:20:41.150112Z",
      "apogee_km": 550.5192632481549,
      "perigee_km": 548.46937714051,
      "latitude_deg": 7.187925092277944e-05,
      "longitude_deg": -83.2253867707211,
      "height_km": 552.3124448089243,
      "semi_major_axis_km": 6927.631320194332,
      "eccentricity": 0.00014795,
      "inclination_deg": 97.6014,
      "raan_deg": 305.8778,
      "arg_perigee_deg": 76.1849,
      "mean_anomaly_deg": 283.9543,
      "mean_motion_rev_day": 15.05655488
    },
    {
      "epoch": "2026-04-01T16:27:35.114112Z",
      "apogee_km": 550.4400414516067,
      "perigee_km": 548.5598807803608,
      "latitude_deg": -7.462444755240183e-06,
      "longitude_deg": -129.94989784150866,
      "height_km": 552.3030464174692,
      "semi_major_axis_km": 6927.6369611159835,
      "eccentricity": 0.0001357,
      "inclination_deg": 97.602,
      "raan_deg": 306.9917,
      "arg_perigee_deg": 73.9446,
      "mean_anomaly_deg": 286.193,
      "mean_motion_rev_day": 15.05653649
    },
    {
      "epoch": "2026-04-02T13:11:41.120736Z",
      "apogee_km": 550.4959492453099,
      "perigee_km": 548.4902617771631,
      "latitude_deg": 5.020973780262399e-05,
      "longitude_deg": -80.97558859218896,
      "height_km": 552.2882246106864,
      "semi_major_axis_km": 6927.630105511236,
      "eccentricity": 0.00014476,
      "inclination_deg": 97.6021,
      "raan_deg": 307.8426,
      "arg_perigee_deg": 74.5118,
      "mean_anomaly_deg": 285.6269,
      "mean_motion_rev_day": 15.05655884
    },
    {
      "epoch": "2026-04-03T14:42:54.783648Z",
      "apogee_km": 550.8317564206218,
      "perigee_km": 548.3377765846799,
      "latitude_deg": -3.5228208070676136e-05,
      "longitude_deg": -103.78099391212241,
      "height_km": 552.3360015689296,
      "semi_major_axis_km": 6927.72176650265,
      "eccentricity": 0.00018,
      "inclination_deg": 97.6022,
      "raan_deg": 308.8922,
      "arg_perigee_deg": 75.5555,
      "mean_anomaly_deg": 284.5871,
      "mean_motion_rev_day": 15.05626002
    },
    {
      "epoch": "2026-04-04T21:01:13.453824Z",
      "apogee_km": 550.5214109096669,
      "perigee_km": 548.494382012962,
      "latitude_deg": 6.23306007134073e-06,
      "longitude_deg": 161.6393175518784,
      "height_km": 552.4009074015497,
      "semi_major_axis_km": 6927.644896461315,
      "eccentricity": 0.0001463,
      "inclination_deg": 97.6024,
      "raan_deg": 310.1349,
      "arg_perigee_deg": 80.3531,
      "mean_anomaly_deg": 279.7861,
      "mean_motion_rev_day": 15.05651062
    },
    {
      "epoch": "2026-04-05T12:58:13.191744Z",
      "apogee_km": 550.5050086172632,
      "perigee_km": 548.4559579180623,
      "latitude_deg": 4.7501347705155536e-06,
      "longitude_deg": -77.60983157151135,
      "height_km": 552.3793747509285,
      "semi_major_axis_km": 6927.6174832676625,
      "eccentricity": 0.00014789,
      "inclination_deg": 97.6026,
      "raan_deg": 310.7897,
      "arg_perigee_deg": 80.7923,
      "mean_anomaly_deg": 279.3471,
      "mean_motion_rev_day": 15.05659999
    },
    {
      "epoch": "2026-04-05T20:56:43.007136Z",
      "apogee_km": 550.5056858014304,
      "perigee_km": 548.4426431966431,
      "latitude_deg": -9.280508314514888e-05,
      "longitude_deg": 162.76593047697617,
      "height_km": 552.3659350938547,
      "semi_major_axis_km": 6927.611164499037,
      "eccentricity": 0.0001489,
      "inclination_deg": 97.6025,
      "raan_deg": 311.1172,
      "arg_perigee_deg": 80.4542,
      "mean_anomaly_deg": 279.6852,
      "mean_motion_rev_day": 15.05662059
    },
    {
      "epoch": "2026-04-06T06:30:54.701280Z",
      "apogee_km": 550.5022160904509,
      "perigee_km": 548.425598442489,
      "latitude_deg": 6.845672192418335e-05,
      "longitude_deg": 19.21716012359945,
      "height_km": 552.3646147660902,
      "semi_major_axis_km": 6927.60090726647,
      "eccentricity": 0.00014988,
      "inclination_deg": 97.6028,
      "raan_deg": 311.5102,
      "arg_perigee_deg": 81.0194,
      "mean_anomaly_deg": 279.1203,
      "mean_motion_rev_day": 15.05665403
    },
    {
      "epoch": "2026-04-07T12:49:11.670240Z",
      "apogee_km": 550.6566018434696,
      "perigee_km": 548.2701820604498,
      "latitude_deg": 2.136348640174956e-05,
      "longitude_deg": -75.35351136281642,
      "height_km": 552.3911187253065,
      "semi_major_axis_km": 6927.60039195196,
      "eccentricity": 0.00017224,
      "inclination_deg": 97.6036,
      "raan_deg": 312.7548,
      "arg_perigee_deg": 83.5202,
      "mean_anomaly_deg": 276.6221,
      "mean_motion_rev_day": 15.05665571
    },
    {
      "epoch": "2026-04-07T20:47:41.457120Z",
      "apogee_km": 550.6002483694847,
      "perigee_km": 548.3349216701827,
      "latitude_deg": 3.429711894949765e-05,
      "longitude_deg": 165.02225476519885,
      "height_km": 552.3931593274906,
      "semi_major_axis_km": 6927.604585019833,
      "eccentricity": 0.0001635,
      "inclination_deg": 97.6033,
      "raan_deg": 313.0822,
      "arg_perigee_deg": 83.0546,
      "mean_anomaly_deg": 277.0867,
      "mean_motion_rev_day": 15.05664204
    },
    {
      "epoch": "2026-04-08T14:20:23.523936Z",
      "apogee_km": 550.6564750170883,
      "perigee_km": 548.350956186936,
      "latitude_deg": 2.9860927390044643e-05,
      "longitude_deg": -98.15347359127888,
      "height_km": 552.4705265268914,
      "semi_major_axis_km": 6927.640715602012,
      "eccentricity": 0.0001664,
      "inclination_deg": 97.6035,
      "raan_deg": 313.8023,
      "arg_perigee_deg": 85.2401,
      "mean_anomaly_deg": 274.9016,
      "mean_motion_rev_day": 15.05652425
    },
    {
      "epoch": "2026-04-09T12:40:11.524224Z",
      "apogee_km": 550.7854251195058,
      "perigee_km": 548.2028042399525,
      "latitude_deg": -8.150529875064645e-05,
      "longitude_deg": -73.10292330191353,
      "height_km": 552.471156975834,
      "semi_major_axis_km": 6927.631114679729,
      "eccentricity": 0.0001864,
      "inclination_deg": 97.6034,
      "raan_deg": 314.7199,
      "arg_perigee_deg": 86.2212,
      "mean_anomaly_deg": 273.9227,
      "mean_motion_rev_day": 15.05655555
    },
    {
      "epoch": "2026-04-10T12:35:41.604576Z",
      "apogee_km": 550.8757990204549,
      "perigee_km": 548.1241416158437,
      "latitude_deg": 4.296158317885884e-07,
      "longitude_deg": -71.97843735726937,
      "height_km": 552.4950187961953,
      "semi_major_axis_km": 6927.636970318149,
      "eccentricity": 0.0001986,
      "inclination_deg": 97.6037,
      "raan_deg": 315.7023,
      "arg_perigee_deg": 87.2145,
      "mean_anomaly_deg": 272.9309,
      "mean_motion_rev_day": 15.05653646
    },
    {
      "epoch": "2026-04-11T20:29:41.667072Z",
      "apogee_km": 550.886059070649,
      "perigee_km": 548.1288565764353,
      "latitude_deg": 4.535093362498543e-05,
      "longitude_deg": 169.52110665479117,
      "height_km": 552.5148290960459,
      "semi_major_axis_km": 6927.644457823541,
      "eccentricity": 0.000199,
      "inclination_deg": 97.6041,
      "raan_deg": 317.0122,
      "arg_perigee_deg": 87.7339,
      "mean_anomaly_deg": 272.4116,
      "mean_motion_rev_day": 15.05651205
    }
  ]
}